GONETS-M 24             
1 54151U 22139B   26008.60965046  .00000036  00000+0  18858-3 0  9996
2 54151  82.4972  86.6393 0016268 215.9203 144.0784 12.42861394145828
GONETS-M 25             
1 54152U 22139C   26008.59604557  .00000026  00000+0  11498-3 0  9994
2 54152  82.5038  87.2486 0020198 215.2651 144.7094 12.42860244145824
SKIF-D                  
1 54153U 22139D   26008.17040487  .00000002  00000+0  00000+0 0  9992
2 54153  89.9616  96.7203 0006761 247.5389 112.4568  5.00434785 56109
MATS                    
1 54227U 22147A   26008.52438563  .00004550  00000+0  33216-3 0  9999
2 54227  97.6811  10.9769 0013783  30.1896 330.0121 15.04110758173750
JILIN-1 GAOFEN 03D54    
1 54254U 22155D   26009.18589622  .00056438  00000+0  74226-3 0  9992
2 54254  97.6014 147.4949 0004345 216.9920 143.1036 15.58298799175297
EOS-6 (OCEANSAT-3)      
1 54361U 22158A   26009.18921845  .00000351  00000+0  10852-3 0  9999
2 54361  98.3534 109.5461 0002268  89.6901 270.4552 14.46997959164841
DONGPO 09               
1 54685U 22167D   26009.21911181  .00013282  00000+0  43249-3 0  9997
2 54685  97.6737 173.7570 0002731 346.4160  13.7006 15.31981509171071
DONGPO 08               
1 54686U 22167E   26009.20476914  .00012143  00000+0  42351-3 0  9995
2 54686  97.6693 171.6268 0009266  15.0637 345.0877 15.29742758170986
2022-167F               
1 54687U 22167F   26009.17488407  .00048539  00000+0  60395-3 0  9998
2 54687  97.6201 182.1919 0002922 281.2195  78.8732 15.59811808171832
DONGPO 10               
1 54689U 22167H   26009.22406154  .00011939  00000+0  40781-3 0  9996
2 54689  97.6778 173.2306 0004969 327.7957  32.2979 15.30453039171013
JILIN-1 GAOFEN 03D48    
1 54695U 22167P   26009.16196015  .00012060  00000+0  40444-3 0  9990
2 54695  97.6708 172.5179 0006531 331.1049  28.9828 15.31037121171028
STAR VIBE               
1 55009U 23001A   26009.20145412  .00013536  00000+0  36722-3 0  9991
2 55009  97.3414  73.3789 0005708 341.4544  18.6492 15.37719713167751
BRO-8                   
1 55011U 23001C   26009.16598572  .00024092  00000+0  61596-3 0  9994
2 55011  97.3471  72.9903 0006715 348.8135  11.2961 15.39419141167660
CONNECTA T1.2           
1 55012U 23001D   26009.12374361  .00014072  00000+0  33758-3 0  9995
2 55012  97.3509  77.9724 0006129 325.7244  34.3607 15.41476734167974
BIRKELAND               
1 55015U 23001G   26009.19012503  .00009449  00000+0  26518-3 0  9990
2 55015  97.3561  76.9532 0006055 328.1753  31.9124 15.36761577167907
ION SCV-008             
1 55051U 23001AU  26009.24545523  .00007048  00000+0  27503-3 0  9997
2 55051  97.5742 103.2003 0015023 208.6625 151.3789 15.26137375167076
ION SCV-007             
1 55060U 23001BD  26009.18106832  .00000523  00000+0  80619-4 0  9995
2 55060  97.9241  75.1950 0013437 126.2927 233.9526 14.77364274162772
HUYGENS                 
1 55093U 23001CN  26009.19018966  .00009599  00000+0  26913-3 0  9990
2 55093  97.3475  76.3791 0008709 300.5618  59.4766 15.36765959167927
SHARJAHSAT-1            
1 55104U 23001CZ  26009.14658351  .00018139  00000+0  41873-3 0  9998
2 55104  97.3417  76.2537 0005812 331.9723  28.1211 15.42579843167920
HORUS 1                 
1 55690U 23025A   26009.00073497  .00006735  00000+0  28590-3 0  9991
2 55690  97.3639  86.8067 0001325 120.8185 239.3183 15.23404839159817
HORUS 2                 
1 55844U 23032A   26008.96962056  .00006968  00000+0  29593-3 0  9994
2 55844  97.3706  87.4383 0001369 185.0918 175.0305 15.23378337157246
GLOBAL-19               
1 55982U 23041B   26008.19623195  .00015697  00000+0  41037-3 0  9996
2 55982  42.0030  55.3791 0003463  48.2194 311.8941 15.38463149157288
BRO-9                   
1 56185U 23054H   26008.98551458  .00033282  00000+0  39814-3 0  9995
2 56185  97.3102 279.7896 0001044 219.4386 140.6796 15.60924889154060
ION SCV-010             
1 56192U 23054Q   26008.68764698  .00006842  00000+0  28136-3 0  9999
2 56192  97.3982 260.1986 0014931  51.6487 308.6090 15.24377129151884
GHOST-1                 
1 56195U 23054T   26008.71439397  .00076862  00000+0  63648-3 0  9997
2 56195  97.3081 282.5029 0001873 187.0541 173.0696 15.70013381154202
TELEOS-2                
1 56310U 23057C   26009.19277174  .00006537  00000+0  50156-3 0  9997
2 56310   9.9885 281.8626 0000945 263.6498  96.3608 14.96429140148943
SNIPE 4                 
1 56744U 23072B   26008.59133706  .00022010  00000+0  64306-3 0  9996
2 56744  97.5368 210.1845 0005989 165.5909 194.5506 15.35300434145562
SNIPE 2                 
1 56745U 23072C   26008.62607427  .00026558  00000+0  70567-3 0  9994
2 56745  97.5378 212.3451 0004240 200.1414 159.9664 15.38230681145645
2023-072G               
1 56749U 23072G   26008.64679588  .00030061  00000+0  72311-3 0  9990
2 56749  97.5035 211.0838 0003710 186.5104 173.6095 15.41248714145818
OTTER PUP               
1 56933U 23084B   26008.66464081  .00091681  00000+0  83220-3 0  9996
2 56933  97.5784 159.1583 0002090  87.3804 272.7695 15.67713652144056
GEISAT PRECURSOR        
1 56934U 23084C   26009.18335851  .00008272  00000+0  27159-3 0  9990
2 56934  97.5987 145.4725 0006288 176.4610 183.6676 15.31833615143169
BLACKJACK ACES-3        
1 56950U 23084U   26008.60427418  .00009806  00000+0  44016-3 0  9990
2 56950  97.5972 142.5885 0008264 179.2477 180.8772 15.21363825142934
BLACKJACK ACES-4        
1 56952U 23084W   26008.47300042  .00354311  50809-4  98687-3 0  9994
2 56952  97.5680 164.8193 0001928 304.0885  56.0206 15.93712687144360
BLACKJACK ACES-2        
1 56955U 23084Z   26008.60819432  .00011148  00000+0  49937-3 0  9995
2 56955  97.5974 142.6848 0007701 176.6196 183.5093 15.21398942142940
BLACKJACK ACES-1        
1 56956U 23084AA  26009.12438442  .00011149  00000+0  49818-3 0  9991
2 56956  97.5951 143.0044 0007123 176.7016 183.4268 15.21487791 92745
ION SCV-011             
1 56957U 23084AB  26008.53462092  .00007791  00000+0  29864-3 0  9991
2 56957  98.1286 181.2896 0006554 226.6156 133.4535 15.26817278141435
GHOST-3                 
1 56958U 23084AC  26008.63192096  .00022780  00000+0  54365-3 0  9996
2 56958  97.5989 149.6273 0007629 144.3565 215.8192 15.41523267143389
TOMORROW-R2             
1 56962U 23084AG  26008.39016449  .00068638  00000+0  79156-3 0  9998
2 56962  97.5867 156.9157 0005120 124.4840 235.6901 15.61710118143855
AFR-1                   
1 56964U 23084AJ  26009.13610223  .00005542  00000+0  21357-3 0  9998
2 56964  97.6034 142.4569 0010920 172.2051 187.9359 15.26710026142944
DROID.001               
1 56965U 23084AK  26009.15249120  .00155127  00000+0  87342-3 0  9996
2 56965  97.5806 161.3005 0001364  71.3333 288.8081 15.78766301144219
METEOR-M2 3             
1 57166U 23091A   26009.02386897  .00000008  00000+0  22196-4 0  9991
2 57166  98.6339  67.0815 0002877 273.4262  86.6587 14.24029985131865
STRATOSAT-TK 1 (RS52S)  
1 57167U 23091B   26008.99172964  .03002061  24745-5  19774-2 0  9993
2 57167  97.5065  89.2973 0008311 288.7648  71.2737 16.17070965141201
UMKA 1 (RS40S)          
1 57172U 23091G   26008.95964454  .00006634  00000+0  32329-3 0  9999
2 57172  97.5299  68.3079 0012380 319.8473  40.1845 15.18612818139823
2023-091H               
1 57173U 23091H   26008.92237301  .00011763  00000+0  47848-3 0  9992
2 57173  97.5289  71.0814 0009839 320.5969  39.4551 15.24642612140004
2023-091J               
1 57174U 23091J   26008.96764160  .00004321  00000+0  25086-3 0  9997
2 57174  97.5306  64.2671 0013150 343.6481  16.4323 15.12586914139555
CUBEBEL 2 (EU11S)       
1 57175U 23091K   26008.96178917  .00013187  00000+0  53183-3 0  9996
2 57175  97.5295  71.0489 0009846 322.6681  37.3871 15.24901837140002
SITRO-AIS 5 (KATYS)     
1 57176U 23091L   26008.94958517  .00011271  00000+0  44999-3 0  9994
2 57176  97.5299  71.6175 0011312 308.5256  51.4966 15.25266151140036
ZORKIY-2M 1             
1 57177U 23091M   26009.00688090  .00006822  00000+0  33418-3 0  9999
2 57177  97.5338  68.5495 0012935 315.9864  44.0339 15.18415664139824
CUBESX-HSE 3 (RS42S)    
1 57178U 23091N   26008.95530038  .00012721  00000+0  48716-3 0  9993
2 57178  97.5329  72.8648 0010629 298.9463  61.0709 15.26632147140093
MONITOR-3 (RS58S)       
1 57180U 23091Q   26008.53980307  .00012301  00000+0  50792-3 0  9999
2 57180  97.5322  71.0430 0011517 305.6877  54.3288 15.24109806139949
MONITOR-4 (RS57S)       
1 57182U 23091S   26009.18452811  .00011101  00000+0  45759-3 0  9991
2 57182  97.5316  71.6527 0011503 303.7311  56.2829 15.24195463140043
MONITOR-2 (RS39S)       
1 57184U 23091U   26009.19589436  .00004973  00000+0  25405-3 0  9993
2 57184  97.5322  68.4982 0010465 310.7294  49.3030 15.17101937139832
SVYATOBOR 1 (RS60S)     
1 57187U 23091X   26009.21760468  .00008612  00000+0  36437-3 0  9996
2 57187  97.5329  72.3213 0008747 294.9763  65.0565 15.23411032140081
HORS 1                  
1 57188U 23091Y   26009.21124706  .00008777  00000+0  37079-3 0  9991
2 57188  97.5308  72.1028 0008266 295.1810  64.8569 15.23460140140088
VIZARD-METEO (RS38S)    
1 57189U 23091Z   26009.17763987  .00015702  00000+0  53612-3 0  9994
2 57189  97.5319  75.9544 0006853 279.3496  80.6969 15.30385619140321
NANOZOND 1 (RS49S)      
1 57190U 23091AA  26009.21899579  .00078462  00000+0  10452-2 0  9994
2 57190  97.5229  85.5221 0004142 257.0610 103.0183 15.57868904140973
SITRO-AIS 6 (CHIRKIN)   
1 57192U 23091AC  26009.22369787  .00006271  00000+0  26602-3 0  9994
2 57192  97.5303  71.6916 0011101 308.6504  51.3739 15.23417243140064
SITRO-AIS 8 (ANOKHIN)   
1 57193U 23091AD  26009.21199841  .00013692  00000+0  51369-3 0  9999
2 57193  97.5293  72.9072 0010536 305.0384  54.9866 15.27295287140143
SITRO-AIS 7 (FARTUSHNIY)
1 57194U 23091AE  26009.19952405  .00006226  00000+0  26587-3 0  9999
2 57194  97.5302  71.5591 0010910 310.2019  49.8262 15.23199691140056
